{
    "links": {
        "self": "http://www.neowsapp.com/rest/v1/neo/3623480?api_key=iIulBulltgU6a56xZRHN4H3l9WmuAYTsLGpBGhQ2"
    },
    "id": "3623480",
    "neo_reference_id": "3623480",
    "name": "(2013 AD4)",
    "designation": "2013 AD4",
    "nasa_jpl_url": "http://ssd.jpl.nasa.gov/sbdb.cgi?sstr=3623480",
    "absolute_magnitude_h": 24.0,
    "estimated_diameter": {
        "kilometers": {
            "estimated_diameter_min": 0.0421264611,
            "estimated_diameter_max": 0.0941976306
        },
        "meters": {
            "estimated_diameter_min": 42.1264610556,
            "estimated_diameter_max": 94.1976305719
        },
        "miles": {
            "estimated_diameter_min": 0.0261761612,
            "estimated_diameter_max": 0.0585316759
        },
        "feet": {
            "estimated_diameter_min": 138.2101784897,
            "estimated_diameter_max": 309.0473542854
        }
    },
    "is_potentially_hazardous_asteroid": false,
    "close_approach_data": [
        {
            "close_approach_date": "2013-01-05",
            "close_approach_date_full": "2013-Jan-05 09:39",
            "epoch_date_close_approach": 1357378740000,
            "relative_velocity": {
                "kilometers_per_second": "11.1091984349",
                "kilometers_per_hour": "39993.1143657941",
                "miles_per_hour": "24850.1659791235"
            },
            "miss_distance": {
                "astronomical": "0.0192279261",
                "lunar": "7.4796632529",
                "kilometers": "2876456.789077407",
                "miles": "1787347.3683339366"
            },
            "orbiting_body": "Earth"
        },
        {
            "close_approach_date": "2017-12-15",
            "close_approach_date_full": "2017-Dec-15 23:44",
            "epoch_date_close_approach": 1513381440000,
            "relative_velocity": {
                "kilometers_per_second": "18.2381111748",
                "kilometers_per_hour": "65657.2002292307",
                "miles_per_hour": "40796.8308868795"
            },
            "miss_distance": {
                "astronomical": "0.2819203446",
                "lunar": "109.6670140494",
                "kilometers": "42174683.061826002",
                "miles": "26206132.8600907476"
            },
            "orbiting_body": "Earth"
        },
        {
            "close_approach_date": "2074-12-23",
            "close_approach_date_full": "2074-Dec-23 17:03",
            "epoch_date_close_approach": 3312810180000,
            "relative_velocity": {
                "kilometers_per_second": "15.1021309103",
                "kilometers_per_hour": "54367.6712769508",
                "miles_per_hour": "33781.9566331698"
            },
            "miss_distance": {
                "astronomical": "0.1686473503",
                "lunar": "65.6038192667",
                "kilometers": "25229284.386023861",
                "miles": "15676750.3769008418"
            },
            "orbiting_body": "Earth"
        }
    ],
    "orbital_data": {
        "orbit_id": "7",
        "orbit_determination_date": "2017-04-06 08:47:27",
        "first_observation_date": "2013-01-03",
        "last_observation_date": "2013-01-09",
        "data_arc_in_days": 6,
        "observations_used": 63,
        "orbit_uncertainty": "7",
        "minimum_orbit_intersection": ".0114086",
        "jupiter_tisserand_invariant": "3.857",
        "epoch_osculation": "2459000.5",
        "eccentricity": ".4896359240445344",
        "semi_major_axis": "1.831023710759338",
        "inclination": "11.07040482306649",
        "ascending_node_longitude": "284.4664134145519",
        "orbital_period": "904.980828852915",
        "perihelion_distance": ".9344887241942372",
        "perihelion_argument": "216.7838324947294",
        "aphelion_distance": "2.727558697324439",
        "perihelion_time": "2459041.283405953819",
        "mean_anomaly": "343.776423018834",
        "mean_motion": ".3977984820477454",
        "equinox": "J2000",
        "orbit_class": {
            "orbit_class_type": "APO",
            "orbit_class_description": "Near-Earth asteroid orbits which cross the Earth’s orbit similar to that of 1862 Apollo",
            "orbit_class_range": "a (semi-major axis) > 1.0 AU; q (perihelion) < 1.017 AU"
        }
    },
    "is_sentry_object": false
}